SL-8 R/B                
1 15483U 85006B   26197.50846645  .00000116  00000+0  47254-4 0  9996
2 15483  74.0454  24.1041 0019251 266.9534 114.2820 14.37845756172549
SL-12 R/B(2)            
1 15772U 85042D   26197.43822196  .00000042  00000+0  40311-4 0  9999
2 15772  71.1066 175.7152 0037351 284.3645 202.0898 14.22011021132698
SL-14 R/B               
1 15945U 85069B   26197.58486100  .00000215  00000+0  21426-4 0  9995
2 15945  82.5261 263.7194 0020119 122.9750 237.3404 14.86535654191989
SL-16 R/B               
1 16182U 85097B   26197.52052530  .00000208  00000+0  12810-3 0  9998
2 16182  71.0007 229.3225 0005704  49.0386 111.7686 14.16613358105471
SL-14 R/B               
1 16496U 86006B   26197.32409625  .00000234  00000+0  21962-4 0  9994
2 16496  82.5283 138.6954 0075563 205.0824 154.6717 14.86968778168324
COSMOS 1743             
1 16719U 86034A   26197.30540469  .00036630  00000+0  30769-3 0  9996
2 16719  82.5281 297.7105 0005458 173.0460 187.0878 15.69707003200353
SL-14 R/B               
1 16792U 86046B   26197.58525125  .00000227  00000+0  23177-4 0  9991
2 16792  82.4840 318.3974 0023647 158.5123 201.7092 14.85691106145546
SL-14 R/B               
1 16882U 86055B   26197.50780993  .00000197  00000+0  19860-4 0  9999
2 16882  82.5204   5.5621 0017310 265.5304 148.6254 14.85740783138496
AJISAI (EGS)            
1 16908U 86061A   26197.59982405 -.00000089  00000+0  61816-4 0  9995
2 16908  50.0102  56.9523 0011083 255.4791 136.9091 12.44516665484050
SL-14 R/B               
1 17567U 87024B   26197.43714336  .00000226  00000+0  22889-4 0  9995
2 17567  82.5299 331.7567 0017925 189.5662 170.5216 14.86232194107253
COSMOS 1833             
1 17589U 87027A   26197.55660621  .00000062  00000+0  59005-4 0  9990
2 17589  70.9212  55.1388 0024329   6.5205 353.6228 14.13066979 28523
SL-16 R/B               
1 17590U 87027B   26197.50852581  .00000160  00000+0  10333-3 0  9994
2 17590  71.0033   5.0381 0007136 280.2854  79.7465 14.17173867 33594
SL-14 R/B               
1 17912U 87038B   26197.43105727  .00000202  00000+0  20531-4 0  9998
2 17912  82.5013 175.5259 0020851  98.4293 261.9288 14.85461925 98341
COSMOS 1844             
1 17973U 87041A   26197.52400691  .00000048  00000+0  49873-4 0  9995
2 17973  70.8998 122.4270 0031241 193.3831 166.6465 14.14581052 21803
SL-14 R/B               
1 18153U 87055B   26197.51989202  .00000176  00000+0  17406-4 0  9999
2 18153  82.4970 227.5762 0019340 310.4561  49.4968 14.85727458 89062
COSMOS 1867             
1 18187U 87060A   26197.54464739 -.00000075  00000+0  96582-5 0  9990
2 18187  65.0119 305.8409 0017186 281.9924  77.9234 14.31518582 38388
SL-14 R/B               
1 18749U 88001B   26197.59135463  .00000202  00000+0  20401-4 0  9991
2 18749  82.5118  74.1089 0018282 167.2353 192.9330 14.85627232 61164
COSMOS 1933             
1 18958U 88020A   26197.35550599  .00001874  00000+0  88316-4 0  9994
2 18958  82.5141 123.5489 0005869 104.5776 255.6110 15.18893039 69758
SL-3 R/B                
1 19046U 88032B   26197.58579418  .00002064  00000+0  95369-4 0  9990
2 19046  97.5276 180.6036 0026630 141.0310 219.2851 15.21037552 71691
SL-16 R/B               
1 19120U 88039B   26197.29215787 -.00000050  00000+0 -10646-5 0  9995
2 19120  71.0126 156.6154 0020559 147.6137 212.6255 14.19631425976630
COSMOS 1953             
1 19210U 88050A   26197.51150675  .00003528  00000+0  11885-3 0  9992
2 19210  82.5060  28.4508 0011402  35.8563 324.3440 15.30347088 57473
SL-8 R/B                
1 19257U 88053B   26197.49882873  .00000114  00000+0  45448-4 0  9996
2 19257  74.0456 235.0258 0019777  20.1888 123.2415 14.38978674995126
COSMOS 1975             
1 19573U 88093A   26197.46361083  .00003425  00000+0  11772-3 0  9993
2 19573  82.5201 348.2424 0012489  78.5817 281.6825 15.29671112 39089
SL-14 R/B               
1 19574U 88093B   26197.49227078  .00000186  00000+0  18618-4 0  9990
2 19574  82.5316 281.1344 0019900 335.8686  35.4801 14.85760443 20144
SL-16 R/B               
1 19650U 88102B   26197.53038216 -.00000034  00000+0  69618-5 0  9995
2 19650  70.9976 240.3976 0014228 183.4214 176.6815 14.16166574945139
INTERCOSMOS 24          
1 20261U 89080A   26197.48067844  .00000108  00000+0  27990-4 0  9991
2 20261  82.6050  20.5773 1187116 353.9624   4.8154 12.59692291683011
SL-14 R/B               
1 20262U 89080C   26197.44264769  .00000068  00000+0  19538-4 0  9997
2 20262  82.5933  90.5106 1228741 250.4362  96.0229 12.50578618676248
DELTA 1 R/B             
1 20323U 89089B   26197.46355764  .00000115  00000+0  36799-4 0  9993
2 20323  97.0635  24.3367 0070623  76.0597 284.8442 14.50748206914406
ARIANE 40 R/B           
1 20443U 90005H   26197.16017022  .00000095  00000+0  43467-4 0  9992
2 20443  98.2944 253.8730 0010335 171.1986 188.9386 14.39940953911296
DELTA 2 R/B(1)          
1 20453U 90008B   26197.60738935  .00081758  00000+0  49621-3 0  9990
2 20453  35.6001  38.1136 0058197  29.2579 331.1402 15.73831495946332
