OBJECT_NAME,OBJECT_ID,EPOCH,MEAN_MOTION,ECCENTRICITY,INCLINATION,RA_OF_ASC_NODE,ARG_OF_PERICENTER,MEAN_ANOMALY,EPHEMERIS_TYPE,CLASSIFICATION_TYPE,NORAD_CAT_ID,ELEMENT_SET_NO,REV_AT_EPOCH,BSTAR,MEAN_MOTION_DOT,MEAN_MOTION_DDOT
SL-8 R/B,1985-006B,2026-07-16T12:12:11.501280,14.37845756,.00192515,74.0454,24.1041,266.9534,114.2820,0,U,15483,999,17254,.47254229E-4,.116E-5,0
SL-12 R/B(2),1985-042D,2026-07-16T10:31:02.377344,14.22011021,.00373513,71.1066,175.7152,284.3645,202.0898,0,U,15772,999,13269,.40310581E-4,.42E-6,0
SL-14 R/B,1985-069B,2026-07-16T14:02:11.990400,14.86535654,.00201199,82.5261,263.7194,122.9750,237.3404,0,U,15945,999,19198,.21425503E-4,.215E-5,0
SL-16 R/B,1985-097B,2026-07-16T12:29:33.385920,14.16613358,.00057046,71.0007,229.3225,49.0386,111.7686,0,U,16182,999,10547,.12809689E-3,.208E-5,0
SL-14 R/B,1986-006B,2026-07-16T07:46:41.916000,14.86968778,.00755632,82.5283,138.6954,205.0824,154.6717,0,U,16496,999,16832,.21962469E-4,.234E-5,0
COSMOS 1743,1986-034A,2026-07-16T07:19:46.965216,15.69707003,.00054587,82.5281,297.7105,173.0460,187.0878,0,U,16719,999,20035,.30768655E-3,.3663E-3,0
SL-14 R/B,1986-046B,2026-07-16T14:02:45.708000,14.85691106,.0023647,82.4840,318.3974,158.5123,201.7092,0,U,16792,999,14554,.23177481E-4,.227E-5,0
SL-14 R/B,1986-055B,2026-07-16T12:11:14.777952,14.85740783,.00173106,82.5204,5.5621,265.5304,148.6254,0,U,16882,999,13849,.19859661E-4,.197E-5,0
AJISAI (EGS),1986-061A,2026-07-16T14:23:44.797920,12.44516665,.00110835,50.0102,56.9523,255.4791,136.9091,0,U,16908,999,48405,.61816419E-4,-.89E-6,0
SL-14 R/B,1987-024B,2026-07-16T10:29:29.186304,14.86232194,.00179258,82.5299,331.7567,189.5662,170.5216,0,U,17567,999,10725,.22888959E-4,.226E-5,0
COSMOS 1833,1987-027A,2026-07-16T13:21:30.776544,14.13066979,.00243299,70.9212,55.1388,6.5205,353.6228,0,U,17589,999,2852,.59004991E-4,.62E-6,0
SL-16 R/B,1987-027B,2026-07-16T12:12:16.629984,14.17173867,.00071363,71.0033,5.0381,280.2854,79.7465,0,U,17590,999,3359,.10333227E-3,.16E-5,0
SL-14 R/B,1987-038B,2026-07-16T10:20:43.348128,14.85461925,.00208516,82.5013,175.5259,98.4293,261.9288,0,U,17912,999,9834,.20530766E-4,.202E-5,0
COSMOS 1844,1987-041A,2026-07-16T12:34:34.197024,14.14581052,.00312415,70.8998,122.4270,193.3831,166.6465,0,U,17973,999,2180,.49873377E-4,.48E-6,0
SL-14 R/B,1987-055B,2026-07-16T12:28:38.670528,14.85727458,.00193401,82.4970,227.5762,310.4561,49.4968,0,U,18153,999,8906,.17405785E-4,.176E-5,0
COSMOS 1867,1987-060A,2026-07-16T13:04:17.534496,14.31518582,.00171864,65.0119,305.8409,281.9924,77.9234,0,U,18187,999,3838,.9658156E-5,-.75E-6,0
SL-14 R/B,1988-001B,2026-07-16T14:11:33.040032,14.85627232,.0018282,82.5118,74.1089,167.2353,192.9330,0,U,18749,999,6116,.20400694E-4,.202E-5,0
COSMOS 1933,1988-020A,2026-07-16T08:31:55.717536,15.18893039,.00058694,82.5141,123.5489,104.5776,255.6110,0,U,18958,999,6975,.88315776E-4,.1874E-4,0
SL-3 R/B,1988-032B,2026-07-16T14:03:32.617152,15.21037552,.00266301,97.5276,180.6036,141.0310,219.2851,0,U,19046,999,7169,.95369292E-4,.2064E-4,0
SL-16 R/B,1988-039B,2026-07-16T07:00:42.439968,14.19631425,.00205599,71.0126,156.6154,147.6137,212.6255,0,U,19120,999,97663,-.106457E-5,-.5E-6,0
COSMOS 1953,1988-050A,2026-07-16T12:16:34.183200,15.30347088,.00114025,82.5060,28.4508,35.8563,324.3440,0,U,19210,999,5747,.11885306E-3,.3528E-4,0
SL-8 R/B,1988-053B,2026-07-16T11:58:18.802272,14.38978674,.00197776,74.0456,235.0258,20.1888,123.2415,0,U,19257,999,99512,.45447546E-4,.114E-5,0
COSMOS 1975,1988-093A,2026-07-16T11:07:35.975712,15.29671112,.0012489,82.5201,348.2424,78.5817,281.6825,0,U,19573,999,3908,.11772123E-3,.3425E-4,0
SL-14 R/B,1988-093B,2026-07-16T11:48:52.195392,14.85760443,.00199002,82.5316,281.1344,335.8686,35.4801,0,U,19574,999,2014,.18617684E-4,.186E-5,0
SL-16 R/B,1988-102B,2026-07-16T12:43:45.018624,14.16166574,.0014228,70.9976,240.3976,183.4214,176.6815,0,U,19650,999,94513,.6961847E-5,-.34E-6,0
INTERCOSMOS 24,1989-080A,2026-07-16T11:32:10.617216,12.59692291,.11871164,82.6050,20.5773,353.9624,4.8154,0,U,20261,999,68301,.27989534E-4,.108E-5,0
SL-14 R/B,1989-080C,2026-07-16T10:37:24.760416,12.50578618,.12287413,82.5933,90.5106,250.4362,96.0229,0,U,20262,999,67624,.1953767E-4,.68E-6,0
DELTA 1 R/B,1989-089B,2026-07-16T11:07:31.380096,14.50748206,.00706233,97.0635,24.3367,76.0597,284.8442,0,U,20323,999,91440,.36799272E-4,.115E-5,0
ARIANE 40 R/B,1990-005H,2026-07-16T03:50:38.707008,14.39940953,.0010335,98.2944,253.8730,171.1986,188.9386,0,U,20443,999,91129,.43466971E-4,.95E-6,0
DELTA 2 R/B(1),1990-008B,2026-07-16T14:34:38.439840,15.73831495,.00581972,35.6001,38.1136,29.2579,331.1402,0,U,20453,999,94633,.49620949E-3,.81758E-3,0
